[{"OBJECT_NAME":"STARLINK-11183 [DTC]","OBJECT_ID":"2024-124G","EPOCH":"2026-03-09T12:33:21.363552","MEAN_MOTION":15.69697228,"ECCENTRICITY":0.0001227,"INCLINATION":53.16,"RA_OF_ASC_NODE":162.3901,"ARG_OF_PERICENTER":90.3593,"MEAN_ANOMALY":269.7566,"EPHEMERIS_TYPE":0,"CLASSIFICATION_TYPE":"U","NORAD_CAT_ID":60189,"ELEMENT_SET_NO":999,"REV_AT_EPOCH":9650,"BSTAR":-1.4709802e-5,"MEAN_MOTION_DOT":-2.369e-5,"MEAN_MOTION_DDOT":0},{"OBJECT_NAME":"SL-16 DEB","OBJECT_ID":"1992-093LF","EPOCH":"2026-03-01T22:50:07.505664","MEAN_MOTION":15.66314523,"ECCENTRICITY":0.0005733,"INCLINATION":71.2496,"RA_OF_ASC_NODE":309.1259,"ARG_OF_PERICENTER":53.7691,"MEAN_ANOMALY":306.4041,"EPHEMERIS_TYPE":0,"CLASSIFICATION_TYPE":"U","NORAD_CAT_ID":39853,"ELEMENT_SET_NO":999,"REV_AT_EPOCH":63666,"BSTAR":0.0026636,"MEAN_MOTION_DOT":0.00285901,"MEAN_MOTION_DDOT":0}]
